{
  "norad_id": 66354,
  "name": "STARLINK-35895",
  "history": [
    {
      "epoch": "2026-03-28T13:54:17.013312Z",
      "apogee_km": 475.9454526643467,
      "perigee_km": 474.4020870789709,
      "latitude_deg": -1.9009136419539473e-05,
      "longitude_deg": 110.44831443332208,
      "height_km": 475.95557523890204,
      "semi_major_axis_km": 6853.3107698716585,
      "eccentricity": 0.0001126,
      "inclination_deg": 53.1589,
      "raan_deg": 145.017,
      "arg_perigee_deg": 81.3263,
      "mean_anomaly_deg": 278.7865,
      "mean_motion_rev_day": 15.30213832
    },
    {
      "epoch": "2026-03-29T04:00:45.838080Z",
      "apogee_km": 476.0947219731888,
      "perigee_km": 474.2456996877063,
      "latitude_deg": 4.4780277957735945e-05,
      "longitude_deg": -104.48373657046086,
      "height_km": 475.79758380552335,
      "semi_major_axis_km": 6853.307210830448,
      "eccentricity": 0.0001349,
      "inclination_deg": 53.1571,
      "raan_deg": 142.2844,
      "arg_perigee_deg": 72.9957,
      "mean_anomaly_deg": 287.1192,
      "mean_motion_rev_day": 15.30215024
    },
    {
      "epoch": "2026-03-29T08:42:55.515456Z",
      "apogee_km": 476.0399276308008,
      "perigee_km": 474.39909701461966,
      "latitude_deg": -4.2985610518776934e-05,
      "longitude_deg": -176.12655680675118,
      "height_km": 475.82133060781155,
      "semi_major_axis_km": 6853.35651232271,
      "eccentricity": 0.00011971,
      "inclination_deg": 53.1574,
      "raan_deg": 141.3751,
      "arg_perigee_deg": 68.8363,
      "mean_anomaly_deg": 291.2765,
      "mean_motion_rev_day": 15.30198512
    },
    {
      "epoch": "2026-03-30T09:47:46.817664Z",
      "apogee_km": 476.1629294109107,
      "perigee_km": 474.27784492799583,
      "latitude_deg": -2.3465136352311603e-05,
      "longitude_deg": 161.77696266241963,
      "height_km": 476.10955063882955,
      "semi_major_axis_km": 6853.357387169453,
      "eccentricity": 0.00013753,
      "inclination_deg": 53.1587,
      "raan_deg": 136.5224,
      "arg_perigee_deg": 89.4754,
      "mean_anomaly_deg": 270.6404,
      "mean_motion_rev_day": 15.30198219
    },
    {
      "epoch": "2026-03-31T07:44:31.529760Z",
      "apogee_km": 475.9426506077398,
      "perigee_km": 474.5452462323574,
      "latitude_deg": 3.3871823781421625e-05,
      "longitude_deg": -172.55917394490658,
      "height_km": 475.848054310955,
      "semi_major_axis_km": 6853.380948420048,
      "eccentricity": 0.00010195,
      "inclination_deg": 53.1584,
      "raan_deg": 132.2738,
      "arg_perigee_deg": 65.0927,
      "mean_anomaly_deg": 295.018,
      "mean_motion_rev_day": 15.30190328
    },
    {
      "epoch": "2026-04-01T19:47:45.178080Z",
      "apogee_km": 476.1972844212514,
      "perigee_km": 474.1906291171099,
      "latitude_deg": 4.228288686082425e-05,
      "longitude_deg": -1.823210301981616,
      "height_km": 475.67859971565395,
      "semi_major_axis_km": 6853.33095676918,
      "eccentricity": 0.0001464,
      "inclination_deg": 53.1593,
      "raan_deg": 125.2973,
      "arg_perigee_deg": 65.6756,
      "mean_anomaly_deg": 294.4398,
      "mean_motion_rev_day": 15.30207071
    },
    {
      "epoch": "2026-04-02T19:18:32.755392Z",
      "apogee_km": 476.0793641884002,
      "perigee_km": 474.2166413246505,
      "latitude_deg": 2.6012350573562836e-05,
      "longitude_deg": -0.04061391076153146,
      "height_km": 476.1390279404201,
      "semi_major_axis_km": 6853.285002756525,
      "eccentricity": 0.0001359,
      "inclination_deg": 53.1581,
      "raan_deg": 120.7438,
      "arg_perigee_deg": 95.7471,
      "mean_anomaly_deg": 264.3685,
      "mean_motion_rev_day": 15.30222462
    },
    {
      "epoch": "2026-04-02T19:18:32.756256Z",
      "apogee_km": 476.07950125409934,
      "perigee_km": 474.2165042589504,
      "latitude_deg": 2.417591962407966e-05,
      "longitude_deg": -0.04061888892974046,
      "height_km": 476.13904166558973,
      "semi_major_axis_km": 6853.285002756525,
      "eccentricity": 0.00013592,
      "inclination_deg": 53.1581,
      "raan_deg": 120.7438,
      "arg_perigee_deg": 95.7471,
      "mean_anomaly_deg": 264.3685,
      "mean_motion_rev_day": 15.30222462
    },
    {
      "epoch": "2026-04-03T10:59:04.785792Z",
      "apogee_km": 476.0002948983192,
      "perigee_km": 474.44197832521513,
      "latitude_deg": 4.334425505689837e-06,
      "longitude_deg": 121.15183750113465,
      "height_km": 475.6695854163413,
      "semi_major_axis_km": 6853.358136611767,
      "eccentricity": 0.00011369,
      "inclination_deg": 53.1588,
      "raan_deg": 117.7135,
      "arg_perigee_deg": 54.725,
      "mean_anomaly_deg": 305.3857,
      "mean_motion_rev_day": 15.30197968
    },
    {
      "epoch": "2026-04-04T10:29:54.134304Z",
      "apogee_km": 476.1361095146749,
      "perigee_km": 474.4117913195514,
      "latitude_deg": -2.0968747739071222e-05,
      "longitude_deg": 122.9280257215531,
      "height_km": 475.9354071720939,
      "semi_major_axis_km": 6853.410950417113,
      "eccentricity": 0.0001258,
      "inclination_deg": 53.1592,
      "raan_deg": 113.161,
      "arg_perigee_deg": 74.0711,
      "mean_anomaly_deg": 286.0428,
      "mean_motion_rev_day": 15.3018028
    },
    {
      "epoch": "2026-04-05T10:00:42.205824Z",
      "apogee_km": 476.1475527131197,
      "perigee_km": 474.2564423501408,
      "latitude_deg": -1.1947862139265012e-05,
      "longitude_deg": 124.71047405806524,
      "height_km": 475.87335596529715,
      "semi_major_axis_km": 6853.33899753163,
      "eccentricity": 0.00013797,
      "inclination_deg": 53.1591,
      "raan_deg": 108.6094,
      "arg_perigee_deg": 76.1385,
      "mean_anomaly_deg": 283.9769,
      "mean_motion_rev_day": 15.30204378
    }
  ]
}